NORAD_CAT_ID,OBJECT_NAME,OBJECT_TYPE,EPOCH,MEAN_MOTION,ECCENTRICITY,INCLINATION,RA_OF_ASC_NODE,ARG_OF_PERICENTER,MEAN_ANOMALY,BSTAR,MEAN_MOTION_DOT,MEAN_MOTION_DDOT,TLE_LINE0,TLE_LINE1,TLE_LINE2,SEMIMAJOR_AXIS,PERIOD,APOGEE,PERIGEE,DECAYED
54163.0,STARLINK-5161,PAYLOAD,2023-04-19 03:27:00,15.0884335,0.0001432,53.2178,62.8145,97.0495,263.066,0.00030504,4.571e-05,0.0,0 STARLINK-5161,1 54163U 22141G   23109.14375106  .00004571  00000-0  30504-3 0  9993,2 54163  53.2178  62.8145 0001432  97.0495 263.0660 15.08843350 26500,6917.87,95.437,540.726,538.745,0.0
54163.0,STARLINK-5161,PAYLOAD,2023-04-19 06:37:46,15.08847113,0.0001455,53.2179,62.2195,95.7264,264.3894,0.00040906,6.229e-05,0.0,0 STARLINK-5161,1 54163U 22141G   23109.27623037  .00006229  00000-0  40906-3 0  9995,2 54163  53.2179  62.2195 0001455  95.7264 264.3894 15.08847113 26520,6917.859,95.437,540.73,538.717,0.0
54163.0,STARLINK-5161,PAYLOAD,2023-04-20 06:28:33,15.08843813,0.0001485,53.2186,57.7577,99.6116,260.5044,0.00018202,2.61e-05,0.0,0 STARLINK-5161,1 54163U 22141G   23110.26983176  .00002610  00000-0  18202-3 0  9993,2 54163  53.2186  57.7577 0001485  99.6116 260.5044 15.08843813 26677,6917.869,95.437,540.761,538.706,0.0
54163.0,STARLINK-5161,PAYLOAD,2023-04-21 12:40:53,15.08841016,0.0001235,53.2186,52.111,101.582,258.5311,0.00010792,1.43e-05,0.0,0 STARLINK-5161,1 54163U 22141G   23111.52839407  .00001430  00000-0  10792-3 0  9995,2 54163  53.2186  52.1110 0001235 101.5820 258.5311 15.08841016 26865,6917.877,95.437,540.597,538.888,0.0
54163.0,STARLINK-5161,PAYLOAD,2023-04-22 04:34:44,15.08844324,0.0001275,53.2191,49.1373,108.8164,251.2966,0.0001537,2.159e-05,0.0,0 STARLINK-5161,1 54163U 22141G   23112.19079250  .00002159  00000-0  15370-3 0  9997,2 54163  53.2191  49.1373 0001275 108.8164 251.2966 15.08844324 26965,6917.867,95.437,540.614,538.85,0.0
54163.0,STARLINK-5161,PAYLOAD,2023-04-23 04:25:31,15.08846897,0.0001096,53.2177,44.6766,103.3952,256.7163,0.00011591,1.558e-05,0.0,0 STARLINK-5161,1 54163U 22141G   23113.18438979  .00001558  00000-0  11591-3 0  9997,2 54163  53.2177  44.6766 0001096 103.3952 256.7163 15.08846897 27115,6917.859,95.437,540.483,538.966,0.0
54163.0,STARLINK-5161,PAYLOAD,2023-04-23 06:00:54,15.088488,0.0001128,53.2178,44.3795,114.944,245.167,3.3904e-05,2.52e-06,0.0,0 STARLINK-5161,1 54163U 22141G   23113.25062807  .00000252  00000-0  33904-4 0  9991,2 54163  53.2178  44.3795 0001128 114.9440 245.1670 15.08848800 27123,6917.853,95.437,540.499,538.938,0.0
54163.0,STARLINK-5161,PAYLOAD,2023-04-24 04:16:17,15.08867158,0.0001286,53.2189,40.2161,110.0678,250.0453,0.00039466,6.003e-05,0.0,0 STARLINK-5161,1 54163U 22141G   23114.17798014  .00006003  00000-0  39466-3 0  9997,2 54163  53.2189  40.2161 0001286 110.0678 250.0453 15.08867158 27268,6917.797,95.436,540.552,538.773,0.0
54163.0,STARLINK-5161,PAYLOAD,2023-04-25 07:17:48,15.08893988,0.0001146,53.2183,35.1624,83.4544,276.6579,0.00079463,0.000124,0.0,0 STARLINK-5161,1 54163U 22141G   23115.30403399  .00012400  00000-0  79463-3 0  9991,2 54163  53.2183  35.1624 0001146  83.4544 276.6579 15.08893988 27431,6917.715,95.434,540.373,538.788,0.0
54163.0,STARLINK-5161,PAYLOAD,2023-04-26 05:33:16,15.08785167,0.0001312,53.2192,30.9996,85.5508,274.5634,-0.00095988,-0.00015509,0.0,0 STARLINK-5161,1 54163U 22141G   23116.23143979 -.00015509  00000-0 -95988-3 0  9994,2 54163  53.2192  30.9996 0001312  85.5508 274.5634 15.08785167 27577,6918.048,95.441,540.821,539.005,0.0
54163.0,STARLINK-5161,PAYLOAD,2023-04-26 18:16:21,15.08812685,0.0001137,53.2189,28.6205,86.2665,273.8457,-6.3602e-05,-1.299e-05,0.0,0 STARLINK-5161,1 54163U 22141G   23116.76135829 -.00001299  00000-0 -63602-4 0  9997,2 54163  53.2189  28.6205 0001137  86.2665 273.8457 15.08812685 27657,6917.964,95.439,540.615,539.042,0.0
54163.0,STARLINK-5161,PAYLOAD,2023-04-27 03:48:40,15.08826667,0.0001869,53.2166,26.8379,84.3514,275.7691,0.00022873,3.353e-05,0.0,0 STARLINK-5161,1 54163U 22141G   23117.15880271  .00003353  00000-0  22873-3 0  9994,2 54163  53.2166  26.8379 0001869  84.3514 275.7691 15.08826667 27711,6917.921,95.438,541.079,538.493,0.0
54163.0,STARLINK-5161,PAYLOAD,2023-04-28 03:39:26,15.08876839,0.0001251,53.2172,22.3769,81.1521,278.9613,0.0010678,0.00016764,0.0,0 STARLINK-5161,1 54163U 22141G   23118.15239474  .00016764  00000-0  10678-2 0  9997,2 54163  53.2172  22.3769 0001251  81.1521 278.9613 15.08876839 27861,6917.768,95.435,540.498,538.767,0.0
54163.0,STARLINK-5161,PAYLOAD,2023-04-28 10:00:59,15.08848523,0.000139,53.2189,21.1886,91.2311,268.8841,-0.00037255,-6.214e-05,0.0,0 STARLINK-5161,1 54163U 22141G   23118.41735702 -.00006214  00000-0 -37255-3 0  9993,2 54163  53.2189  21.1886 0001390  91.2311 268.8841 15.08848523 27904,6917.854,95.437,540.681,538.758,0.0
54163.0,STARLINK-5161,PAYLOAD,2023-04-29 00:19:27,15.08842847,0.0001313,53.2189,18.5145,104.9298,255.1839,-7.7438e-05,-1.52e-05,0.0,0 STARLINK-5161,1 54163U 22141G   23119.01351619 -.00001520  00000-0 -77438-4 0  9994,2 54163  53.2189  18.5145 0001313 104.9298 255.1839 15.08842847 27991,6917.872,95.437,540.645,538.828,0.0
54163.0,STARLINK-5161,PAYLOAD,2023-04-30 01:45:38,15.08848339,0.0001191,53.2182,13.7567,108.4644,251.6478,0.00055252,8.518e-05,0.0,0 STARLINK-5161,1 54163U 22141G   23120.07335856  .00008518  00000-0  55252-3 0  9998,2 54163  53.2182  13.7567 0001191 108.4644 251.6478 15.08848339 28158,6917.855,95.437,540.544,538.896,0.0
54163.0,STARLINK-5161,PAYLOAD,2023-05-01 00:01:02,15.08836845,0.0001218,53.2182,9.5919,94.8647,265.2484,6.5895e-05,7.61e-06,0.0,0 STARLINK-5161,1 54163U 22141G   23121.00072351  .00000761  00000-0  65895-4 0  9997,2 54163  53.2182   9.5919 0001218  94.8647 265.2484 15.08836845 28295,6917.89,95.438,540.598,538.912,0.0
54163.0,STARLINK-5161,PAYLOAD,2023-05-01 22:16:26,15.08843012,0.0001239,53.2185,5.4275,90.7938,269.3196,0.00017061,2.429e-05,0.0,0 STARLINK-5161,1 54163U 22141G   23121.92808318  .00002429  00000-0  17061-3 0  9992,2 54163  53.2185   5.4275 0001239  90.7938 269.3196 15.08843012 28434,6917.871,95.437,540.593,538.879,0.0
54163.0,STARLINK-5161,PAYLOAD,2023-05-02 01:27:12,15.08847048,0.0001295,53.2188,4.8317,85.1042,275.0098,0.00018903,2.722e-05,0.0,0 STARLINK-5161,1 54163U 22141G   23122.06056152  .00002722  00000-0  18903-3 0  9991,2 54163  53.2188   4.8317 0001295  85.1042 275.0098 15.08847048 28453,6917.859,95.437,540.62,538.828,0.0
54163.0,STARLINK-5161,PAYLOAD,2023-05-02 22:07:13,15.08844879,0.000125,53.2179,0.9673,83.5131,276.6004,0.00017805,2.547e-05,0.0,0 STARLINK-5161,1 54163U 22141G   23122.92168275  .00002547  00000-0  17805-3 0  9991,2 54163  53.2179   0.9673 0001250  83.5131 276.6004 15.08844879 28584,6917.865,95.437,540.595,538.866,0.0
54163.0,STARLINK-5161,PAYLOAD,2023-05-03 01:17:59,15.08847103,0.000126,53.218,0.3714,86.1091,274.0045,0.00019998,2.897e-05,0.0,0 STARLINK-5161,1 54163U 22141G   23123.05416123  .00002897  00000-0  19998-3 0  9997,2 54163  53.2180   0.3714 0001260  86.1091 274.0045 15.08847103 28604,6917.859,95.437,540.595,538.852,0.0
54163.0,STARLINK-5161,PAYLOAD,2023-05-03 09:14:55,15.08845184,0.0001259,53.2174,358.8854,83.4804,276.6332,0.00014346,1.996e-05,0.0,0 STARLINK-5161,1 54163U 22141G   23123.38536180  .00001996  00000-0  14346-3 0  9990,2 54163  53.2174 358.8854 0001259  83.4804 276.6332 15.08845184 28652,6917.865,95.437,540.601,538.859,0.0
54163.0,STARLINK-5161,PAYLOAD,2023-05-03 20:22:37,15.08842379,0.0001336,53.2173,356.8034,88.9605,271.154,4.8201e-05,4.79e-06,0.0,0 STARLINK-5161,1 54163U 22141G   23123.84904263  .00000479  00000-0  48201-4 0  9995,2 54163  53.2173 356.8034 0001336  88.9605 271.1540 15.08842379 28726,6917.873,95.437,540.662,538.814,0.0
54163.0,STARLINK-5161,PAYLOAD,2023-05-03 21:58:00,15.08844102,0.0001328,53.2173,356.506,89.9359,270.1785,1.7608e-05,-8e-08,0.0,0 STARLINK-5161,1 54163U 22141G   23123.91528165 -.00000008  00000-0  17608-4 0  9992,2 54163  53.2173 356.5060 0001328  89.9359 270.1785 15.08844102 28737,6917.868,95.437,540.652,538.814,0.0
54163.0,STARLINK-5161,PAYLOAD,2023-05-04 21:48:47,15.08844255,0.0001149,53.2185,352.0453,94.2269,265.8854,6.754e-05,7.87e-06,0.0,0 STARLINK-5161,1 54163U 22141G   23124.90888074  .00000787  00000-0  67540-4 0  9993,2 54163  53.2185 352.0453 0001149  94.2269 265.8854 15.08844255 28880,6917.867,95.437,540.527,538.938,0.0
54163.0,STARLINK-5161,PAYLOAD,2023-05-05 20:04:11,15.08839729,0.0001036,53.2179,347.8834,91.3566,268.7545,9.2132e-05,1.179e-05,0.0,0 STARLINK-5161,1 54163U 22141G   23125.83624340  .00001179  00000-0  92132-4 0  9991,2 54163  53.2179 347.8834 0001036  91.3566 268.7545 15.08839729 29027,6917.881,95.438,540.463,539.03,0.0
54163.0,STARLINK-5161,PAYLOAD,2023-05-05 21:39:34,15.08843191,0.0001037,53.2182,347.5852,94.4203,265.6908,0.00011104,1.48e-05,0.0,0 STARLINK-5161,1 54163U 22141G   23125.90248068  .00001480  00000-0  11104-3 0  9992,2 54163  53.2182 347.5852 0001037  94.4203 265.6908 15.08843191 29039,6917.871,95.437,540.453,539.018,0.0
54163.0,STARLINK-5161,PAYLOAD,2023-05-06 21:30:21,15.08843008,9.35e-05,53.2182,343.1248,91.9357,268.1742,8.4832e-05,1.063e-05,0.0,0 STARLINK-5161,1 54163U 22141G   23126.89608242  .00001063  00000-0  84832-4 0  9991,2 54163  53.2182 343.1248 0000935  91.9357 268.1742 15.08843008 29185,6917.871,95.437,540.383,539.089,0.0
54163.0,STARLINK-5161,PAYLOAD,2023-05-07 21:21:09,15.08823562,8.82e-05,53.2172,338.6675,109.9049,250.2038,-5.8548e-05,-1.219e-05,0.0,0 STARLINK-5161,1 54163U 22141G   23127.88969694 -.00001219  00000-0 -58548-4 0  9992,2 54163  53.2172 338.6675 0000882 109.9049 250.2038 15.08823562 29336,6917.931,95.439,540.406,539.185,0.0
54163.0,STARLINK-5161,PAYLOAD,2023-05-08 06:53:28,15.08830631,9.03e-05,53.2183,336.8814,96.4837,263.6258,8.268e-06,-1.56e-06,0.0,0 STARLINK-5161,1 54163U 22141G   23128.28713383 -.00000156  00000-0  82680-5 0  9992,2 54163  53.2183 336.8814 0000903  96.4837 263.6258 15.08830631 29395,6917.909,95.438,540.399,539.149,0.0
